[{"OBJECT_NAME":"SL-8 R/B","OBJECT_ID":"1991-006B","EPOCH":"2026-03-21T15:07:01.393536","MEAN_MOTION":13.77495911,"ECCENTRICITY":0.00223312,"INCLINATION":82.9458,"RA_OF_ASC_NODE":161.1694,"ARG_OF_PERICENTER":5.5393,"MEAN_ANOMALY":157.2214,"EPHEMERIS_TYPE":0,"CLASSIFICATION_TYPE":"U","NORAD_CAT_ID":21088,"ELEMENT_SET_NO":999,"REV_AT_EPOCH":76571,"BSTAR":8.6595748e-5,"MEAN_MOTION_DOT":1.02e-6,"MEAN_MOTION_DDOT":0},{"OBJECT_NAME":"OKEAN-3","OBJECT_ID":"1991-039A","EPOCH":"2026-03-21T09:09:56.360448","MEAN_MOTION":15.04877631,"ECCENTRICITY":0.00127335,"INCLINATION":82.5182,"RA_OF_ASC_NODE":325.5173,"ARG_OF_PERICENTER":293.2891,"MEAN_ANOMALY":66.6995,"EPHEMERIS_TYPE":0,"CLASSIFICATION_TYPE":"U","NORAD_CAT_ID":21397,"ELEMENT_SET_NO":999,"REV_AT_EPOCH":86679,"BSTAR":0.00018072196,"MEAN_MOTION_DOT":2.586e-5,"MEAN_MOTION_DDOT":0},{"OBJECT_NAME":"COSMOS 2151","OBJECT_ID":"1991-042A","EPOCH":"2026-03-21T13:21:13.980384","MEAN_MOTION":15.00152264,"ECCENTRICITY":0.00131692,"INCLINATION":82.4936,"RA_OF_ASC_NODE":72.2254,"ARG_OF_PERICENTER":27.038,"MEAN_ANOMALY":333.1527,"EPHEMERIS_TYPE":0,"CLASSIFICATION_TYPE":"U","NORAD_CAT_ID":21422,"ELEMENT_SET_NO":999,"REV_AT_EPOCH":86497,"BSTAR":0.00014596973,"MEAN_MOTION_DOT":1.851e-5,"MEAN_MOTION_DDOT":0},{"OBJECT_NAME":"SL-14 R/B","OBJECT_ID":"1991-042B","EPOCH":"2026-03-21T15:24:49.487616","MEAN_MOTION":14.81841524,"ECCENTRICITY":0.00165928,"INCLINATION":82.4944,"RA_OF_ASC_NODE":208.9754,"ARG_OF_PERICENTER":197.1917,"MEAN_ANOMALY":162.8738,"EPHEMERIS_TYPE":0,"CLASSIFICATION_TYPE":"U","NORAD_CAT_ID":21423,"ELEMENT_SET_NO":999,"REV_AT_EPOCH":85484,"BSTAR":6.0081695e-5,"MEAN_MOTION_DOT":4.99e-6,"MEAN_MOTION_DDOT":0},{"OBJECT_NAME":"ERS-1","OBJECT_ID":"1991-050A","EPOCH":"2026-03-21T14:00:30.304512","MEAN_MOTION":14.3945791,"ECCENTRICITY":0.00323011,"INCLINATION":98.7873,"RA_OF_ASC_NODE":99.1169,"ARG_OF_PERICENTER":165.1451,"MEAN_ANOMALY":195.0693,"EPHEMERIS_TYPE":0,"CLASSIFICATION_TYPE":"U","NORAD_CAT_ID":21574,"ELEMENT_SET_NO":999,"REV_AT_EPOCH":81744,"BSTAR":0.00010286407,"MEAN_MOTION_DOT":2.76e-6,"MEAN_MOTION_DDOT":0},{"OBJECT_NAME":"ARIANE 40 R/B","OBJECT_ID":"1991-050F","EPOCH":"2026-03-21T14:33:07.645536","MEAN_MOTION":14.42901713,"ECCENTRICITY":0.00039497,"INCLINATION":98.1987,"RA_OF_ASC_NODE":132.3942,"ARG_OF_PERICENTER":55.0751,"MEAN_ANOMALY":305.0811,"EPHEMERIS_TYPE":0,"CLASSIFICATION_TYPE":"U","NORAD_CAT_ID":21610,"ELEMENT_SET_NO":999,"REV_AT_EPOCH":82071,"BSTAR":9.0481286e-5,"MEAN_MOTION_DOT":2.61e-6,"MEAN_MOTION_DDOT":0},{"OBJECT_NAME":"INTERCOSMOS 25","OBJECT_ID":"1991-086A","EPOCH":"2026-03-21T13:04:34.649472","MEAN_MOTION":12.12040751,"ECCENTRICITY":0.14867821,"INCLINATION":82.6031,"RA_OF_ASC_NODE":302.8423,"ARG_OF_PERICENTER":91.3898,"MEAN_ANOMALY":285.7334,"EPHEMERIS_TYPE":0,"CLASSIFICATION_TYPE":"U","NORAD_CAT_ID":21819,"ELEMENT_SET_NO":999,"REV_AT_EPOCH":49812,"BSTAR":0.00032046154,"MEAN_MOTION_DOT":1.672e-5,"MEAN_MOTION_DDOT":0},{"OBJECT_NAME":"SL-8 R/B","OBJECT_ID":"1992-008B","EPOCH":"2026-03-21T13:48:21.225888","MEAN_MOTION":13.75969532,"ECCENTRICITY":0.00359067,"INCLINATION":82.9224,"RA_OF_ASC_NODE":258.9341,"ARG_OF_PERICENTER":101.197,"MEAN_ANOMALY":322.7195,"EPHEMERIS_TYPE":0,"CLASSIFICATION_TYPE":"U","NORAD_CAT_ID":21876,"ELEMENT_SET_NO":999,"REV_AT_EPOCH":71105,"BSTAR":-2.1458721e-5,"MEAN_MOTION_DOT":-5.0e-8,"MEAN_MOTION_DDOT":0},{"OBJECT_NAME":"SL-8 R/B","OBJECT_ID":"1992-020B","EPOCH":"2026-03-21T15:21:34.703136","MEAN_MOTION":13.75550297,"ECCENTRICITY":0.00275684,"INCLINATION":82.9318,"RA_OF_ASC_NODE":144.8895,"ARG_OF_PERICENTER":263.8335,"MEAN_ANOMALY":249.01,"EPHEMERIS_TYPE":0,"CLASSIFICATION_TYPE":"U","NORAD_CAT_ID":21938,"ELEMENT_SET_NO":999,"REV_AT_EPOCH":70277,"BSTAR":3.7711329e-5,"MEAN_MOTION_DOT":5.1e-7,"MEAN_MOTION_DDOT":0},{"OBJECT_NAME":"USA 81","OBJECT_ID":"1992-023A","EPOCH":"2026-03-21T12:49:49.617120","MEAN_MOTION":14.32371646,"ECCENTRICITY":0.00021044,"INCLINATION":85.0062,"RA_OF_ASC_NODE":124.6066,"ARG_OF_PERICENTER":69.8293,"MEAN_ANOMALY":290.3126,"EPHEMERIS_TYPE":0,"CLASSIFICATION_TYPE":"U","NORAD_CAT_ID":21949,"ELEMENT_SET_NO":999,"REV_AT_EPOCH":9648,"BSTAR":5.2822482e-5,"MEAN_MOTION_DOT":1.63e-6,"MEAN_MOTION_DDOT":0},{"OBJECT_NAME":"COSMOS 2219","OBJECT_ID":"1992-076A","EPOCH":"2026-03-21T11:25:02.316000","MEAN_MOTION":14.14093038,"ECCENTRICITY":0.00182879,"INCLINATION":71.0638,"RA_OF_ASC_NODE":353.4324,"ARG_OF_PERICENTER":190.288,"MEAN_ANOMALY":169.7871,"EPHEMERIS_TYPE":0,"CLASSIFICATION_TYPE":"U","NORAD_CAT_ID":22219,"ELEMENT_SET_NO":999,"REV_AT_EPOCH":72004,"BSTAR":-4.7377824e-5,"MEAN_MOTION_DOT":-1.37e-6,"MEAN_MOTION_DDOT":0},{"OBJECT_NAME":"SL-16 R/B","OBJECT_ID":"1992-076B","EPOCH":"2026-03-21T13:32:36.176640","MEAN_MOTION":14.16861899,"ECCENTRICITY":0.00106263,"INCLINATION":71.0007,"RA_OF_ASC_NODE":163.3623,"ARG_OF_PERICENTER":74.3254,"MEAN_ANOMALY":22.3984,"EPHEMERIS_TYPE":0,"CLASSIFICATION_TYPE":"U","NORAD_CAT_ID":22220,"ELEMENT_SET_NO":999,"REV_AT_EPOCH":72351,"BSTAR":0.00016435497,"MEAN_MOTION_DOT":2.82e-6,"MEAN_MOTION_DDOT":0},{"OBJECT_NAME":"COSMOS 2221","OBJECT_ID":"1992-080A","EPOCH":"2026-03-21T12:59:39.510528","MEAN_MOTION":14.96246897,"ECCENTRICITY":0.00150378,"INCLINATION":82.5001,"RA_OF_ASC_NODE":267.725,"ARG_OF_PERICENTER":148.0876,"MEAN_ANOMALY":212.126,"EPHEMERIS_TYPE":0,"CLASSIFICATION_TYPE":"U","NORAD_CAT_ID":22236,"ELEMENT_SET_NO":999,"REV_AT_EPOCH":78256,"BSTAR":0.00017678035,"MEAN_MOTION_DOT":2.025e-5,"MEAN_MOTION_DDOT":0},{"OBJECT_NAME":"SL-16 R/B","OBJECT_ID":"1992-093B","EPOCH":"2026-03-21T02:49:03.427392","MEAN_MOTION":14.15449293,"ECCENTRICITY":0.00063095,"INCLINATION":71.0238,"RA_OF_ASC_NODE":340.2783,"ARG_OF_PERICENTER":282.2023,"MEAN_ANOMALY":77.8393,"EPHEMERIS_TYPE":0,"CLASSIFICATION_TYPE":"U","NORAD_CAT_ID":22285,"ELEMENT_SET_NO":999,"REV_AT_EPOCH":71477,"BSTAR":0.00017559529,"MEAN_MOTION_DOT":2.95e-6,"MEAN_MOTION_DDOT":0},{"OBJECT_NAME":"COSMOS 2228","OBJECT_ID":"1992-094A","EPOCH":"2026-03-21T13:11:50.471808","MEAN_MOTION":14.97248119,"ECCENTRICITY":0.00165937,"INCLINATION":82.5176,"RA_OF_ASC_NODE":225.9534,"ARG_OF_PERICENTER":261.3553,"MEAN_ANOMALY":98.579,"EPHEMERIS_TYPE":0,"CLASSIFICATION_TYPE":"U","NORAD_CAT_ID":22286,"ELEMENT_SET_NO":999,"REV_AT_EPOCH":77783,"BSTAR":0.00024988921,"MEAN_MOTION_DOT":2.926e-5,"MEAN_MOTION_DDOT":0},{"OBJECT_NAME":"SL-16 R/B","OBJECT_ID":"1993-016B","EPOCH":"2026-03-21T13:59:30.804288","MEAN_MOTION":14.1530687,"ECCENTRICITY":0.00123489,"INCLINATION":71.0081,"RA_OF_ASC_NODE":190.2032,"ARG_OF_PERICENTER":298.6125,"MEAN_ANOMALY":61.3755,"EPHEMERIS_TYPE":0,"CLASSIFICATION_TYPE":"U","NORAD_CAT_ID":22566,"ELEMENT_SET_NO":999,"REV_AT_EPOCH":70385,"BSTAR":-9.9002095e-5,"MEAN_MOTION_DOT":-2.41e-6,"MEAN_MOTION_DDOT":0},{"OBJECT_NAME":"COSMOS 2242","OBJECT_ID":"1993-024A","EPOCH":"2026-03-21T12:53:32.513568","MEAN_MOTION":14.96596927,"ECCENTRICITY":0.00149048,"INCLINATION":82.5153,"RA_OF_ASC_NODE":255.3809,"ARG_OF_PERICENTER":265.3762,"MEAN_ANOMALY":94.5758,"EPHEMERIS_TYPE":0,"CLASSIFICATION_TYPE":"U","NORAD_CAT_ID":22626,"ELEMENT_SET_NO":999,"REV_AT_EPOCH":78216,"BSTAR":0.00017468699,"MEAN_MOTION_DOT":2.018e-5,"MEAN_MOTION_DDOT":0}]
