SL-8 R/B                
1 21088U 91006B   26080.62987724  .00000102  00000+0  86596-4 0  9996
2 21088  82.9458 161.1694 0022331   5.5393 157.2214 13.77495911765716
OKEAN-3                 
1 21397U 91039A   26080.38190232  .00002586  00000+0  18072-3 0  9999
2 21397  82.5182 325.5173 0012733 293.2891  66.6995 15.04877631866795
COSMOS 2151             
1 21422U 91042A   26080.55641181  .00001851  00000+0  14597-3 0  9997
2 21422  82.4936  72.2254 0013169  27.0380 333.1527 15.00152264864971
SL-14 R/B               
1 21423U 91042B   26080.64223944  .00000499  00000+0  60082-4 0  9999
2 21423  82.4944 208.9754 0016592 197.1917 162.8738 14.81841524854840
ERS-1                   
1 21574U 91050A   26080.58368408  .00000276  00000+0  10286-3 0  9996
2 21574  98.7873  99.1169 0032301 165.1451 195.0693 14.39457910817440
ARIANE 40 R/B           
1 21610U 91050F   26080.60633849  .00000261  00000+0  90481-4 0  9994
2 21610  98.1987 132.3942 0003949  55.0751 305.0811 14.42901713820714
INTERCOSMOS 25          
1 21819U 91086A   26080.54484548  .00001672  00000+0  32046-3 0  9996
2 21819  82.6031 302.8423 1486782  91.3898 285.7334 12.12040751498128
SL-8 R/B                
1 21876U 92008B   26080.57524567 -.00000005  00000+0 -21459-4 0  9991
2 21876  82.9224 258.9341 0035906 101.1970 322.7195 13.75969532711050
SL-8 R/B                
1 21938U 92020B   26080.63998499  .00000051  00000+0  37711-4 0  9997
2 21938  82.9318 144.8895 0027568 263.8335 249.0100 13.75550297702776
USA 81                  
1 21949U 92023A   26080.53460205  .00000163  00000+0  52822-4 0  9994
2 21949  85.0062 124.6066 0002104  69.8293 290.3126 14.32371646 96484
COSMOS 2219             
1 22219U 92076A   26080.47572125 -.00000137  00000+0 -47378-4 0  9994
2 22219  71.0638 353.4324 0018287 190.2880 169.7871 14.14093038720046
SL-16 R/B               
1 22220U 92076B   26080.56430760  .00000282  00000+0  16435-3 0  9992
2 22220  71.0007 163.3623 0010626  74.3254  22.3984 14.16861899723518
COSMOS 2221             
1 22236U 92080A   26080.54142952  .00002025  00000+0  17678-3 0  9992
2 22236  82.5001 267.7250 0015037 148.0876 212.1260 14.96246897782560
SL-16 R/B               
1 22285U 92093B   26080.11740078  .00000295  00000+0  17560-3 0  9993
2 22285  71.0238 340.2783 0006309 282.2023  77.8393 14.15449293714771
COSMOS 2228             
1 22286U 92094A   26080.54988972  .00002926  00000+0  24989-3 0  9995
2 22286  82.5176 225.9534 0016593 261.3553  98.5790 14.97248119777836
SL-16 R/B               
1 22566U 93016B   26080.58299542 -.00000241  00000+0 -99002-4 0  9992
2 22566  71.0081 190.2032 0012348 298.6125  61.3755 14.15306870703853
COSMOS 2242             
1 22626U 93024A   26080.53718187  .00002018  00000+0  17469-3 0  9992
2 22626  82.5153 255.3809 0014904 265.3762  94.5758 14.96596927782165
